[{"OBJECT_NAME":"STARLINK-1394","OBJECT_ID":"2020-035Y","EPOCH":"2026-03-09T07:04:11.880480","MEAN_MOTION":15.49750086,"ECCENTRICITY":0.00028708,"INCLINATION":53.0499,"RA_OF_ASC_NODE":38.4615,"ARG_OF_PERICENTER":117.7699,"MEAN_ANOMALY":242.36,"EPHEMERIS_TYPE":0,"CLASSIFICATION_TYPE":"U","NORAD_CAT_ID":45679,"ELEMENT_SET_NO":999,"REV_AT_EPOCH":31909,"BSTAR":0.0016490393,"MEAN_MOTION_DOT":0.0009384,"MEAN_MOTION_DDOT":0},{"OBJECT_NAME":"STARLINK-1892","OBJECT_ID":"2020-074E","EPOCH":"2026-03-09T22:16:43.903488","MEAN_MOTION":15.50597372,"ECCENTRICITY":0.0004541,"INCLINATION":53.0467,"RA_OF_ASC_NODE":292.3712,"ARG_OF_PERICENTER":97.7841,"MEAN_ANOMALY":262.3683,"EPHEMERIS_TYPE":0,"CLASSIFICATION_TYPE":"U","NORAD_CAT_ID":46743,"ELEMENT_SET_NO":999,"REV_AT_EPOCH":29711,"BSTAR":0.0020777794,"MEAN_MOTION_DOT":0.0012244,"MEAN_MOTION_DDOT":0}]
